{
    "links": {
        "self": "http://www.neowsapp.com/rest/v1/neo/54016605?api_key=iIulBulltgU6a56xZRHN4H3l9WmuAYTsLGpBGhQ2"
    },
    "id": "54016605",
    "neo_reference_id": "54016605",
    "name": "(2020 HR1)",
    "designation": "2020 HR1",
    "nasa_jpl_url": "http://ssd.jpl.nasa.gov/sbdb.cgi?sstr=54016605",
    "absolute_magnitude_h": 24.477,
    "estimated_diameter": {
        "kilometers": {
            "estimated_diameter_min": 0.0338185495,
            "estimated_diameter_max": 0.0756205756
        },
        "meters": {
            "estimated_diameter_min": 33.8185495096,
            "estimated_diameter_max": 75.620575604
        },
        "miles": {
            "estimated_diameter_min": 0.0210138659,
            "estimated_diameter_max": 0.0469884327
        },
        "feet": {
            "estimated_diameter_min": 110.9532499732,
            "estimated_diameter_max": 248.0990092645
        }
    },
    "is_potentially_hazardous_asteroid": false,
    "close_approach_data": [
        {
            "close_approach_date": "2020-04-30",
            "close_approach_date_full": "2020-Apr-30 02:38",
            "epoch_date_close_approach": 1588214280000,
            "relative_velocity": {
                "kilometers_per_second": "8.1941031048",
                "kilometers_per_hour": "29498.7711772741",
                "miles_per_hour": "18329.3892351235"
            },
            "miss_distance": {
                "astronomical": "0.0729600319",
                "lunar": "28.3814524091",
                "kilometers": "10914665.367372053",
                "miles": "6782058.5710502114"
            },
            "orbiting_body": "Earth"
        }
    ],
    "orbital_data": {
        "orbit_id": "4",
        "orbit_determination_date": "2020-04-27 07:38:30",
        "first_observation_date": "2020-04-18",
        "last_observation_date": "2020-04-27",
        "data_arc_in_days": 9,
        "observations_used": 34,
        "orbit_uncertainty": "7",
        "minimum_orbit_intersection": ".0618824",
        "jupiter_tisserand_invariant": "3.744",
        "epoch_osculation": "2459000.5",
        "eccentricity": ".4523895849623276",
        "semi_major_axis": "1.945334474717057",
        "inclination": "11.48784756447748",
        "ascending_node_longitude": "47.72335060482714",
        "orbital_period": "991.0369608198149",
        "perihelion_distance": "1.0652854190869",
        "perihelion_argument": "167.652655794849",
        "aphelion_distance": "2.825383530347215",
        "perihelion_time": "2458963.652103718436",
        "mean_anomaly": "13.38521486664806",
        "mean_motion": ".3632558766548903",
        "equinox": "J2000",
        "orbit_class": {
            "orbit_class_type": "AMO",
            "orbit_class_description": "Near-Earth asteroid orbits similar to that of 1221 Amor",
            "orbit_class_range": "1.017 AU < q (perihelion) < 1.3 AU"
        }
    },
    "is_sentry_object": false
}